CTC2_L_00477006-10
1 67306U 26326IY  26070.40848380  .00000000  00000+0  00000-0 0  9990
2 67306  50.0000  60.0000 0000000   0.0000 151.3043 14.89338871    15
CTC2_L_00477006-11
1 67307U 24873OP  26070.40848380  .00000000  00000+0  00000-0 0  9996
2 67307  50.0000  60.0000 0000000   0.0000 166.9565 14.89338871    17
CTC2_L_00477006-12
1 67308U 26183LR  26070.40848380  .00000000  00000+0  00000-0 0  9993
2 67308  50.0000  60.0000 0000000   0.0000 182.6087 14.89338871    12
CTC2_L_00477006-13
1 67309U 23877PP  26070.40848380  .00000000  00000+0  00000-0 0  9991
2 67309  50.0000  60.0000 0000000   0.0000 198.2609 14.89338871    16
CTC2_L_00477006-14
1 67310U 22243VH  26070.40848380  .00000000  00000+0  00000-0 0  9999
2 67310  50.0000  60.0000 0000000   0.0000 213.9130 14.89338871    12
CTC2_L_00477006-15
1 67311U 23225UW  26070.40848380  .00000000  00000+0  00000-0 0  9991
2 67311  50.0000  60.0000 0000000   0.0000 229.5652 14.89338871    15
CTC2_L_00477006-16
1 67312U 26738W   26070.40848380  .00000000  00000+0  00000-0 0  9994
2 67312  50.0000  60.0000 0000000   0.0000 245.2174 14.89338871    10
CTC2_L_00477006-17
1 67313U 26121FY  26070.40848380  .00000000  00000+0  00000-0 0  9991
2 67313  50.0000  60.0000 0000000   0.0000 260.8696 14.89338871    13
CTC2_L_00477006-18
1 67314U 22153QQ  26070.40848380  .00000000  00000+0  00000-0 0  9993
2 67314  50.0000  60.0000 0000000   0.0000 276.5217 14.89338871    17
CTC2_L_00477006-19
1 67315U 26436YK  26070.40848380  .00000000  00000+0  00000-0 0  9992
2 67315  50.0000  60.0000 0000000   0.0000 292.1739 14.89338871    11
CTC2_L_00477006-20
1 67316U 24505NX  26070.40848380  .00000000  00000+0  00000-0 0  9998
2 67316  50.0000  60.0000 0000000   0.0000 307.8261 14.89338871    16
CTC2_L_00477006-21
1 67317U 25884GC  26070.40848380  .00000000  00000+0  00000-0 0  9990
2 67317  50.0000  60.0000 0000000   0.0000 323.4783 14.89338871    10
CTC2_L_00477006-22
1 67318U 23289MB  26070.40848380  .00000000  00000+0  00000-0 0  9998
2 67318  50.0000  60.0000 0000000   0.0000 339.1304 14.89338871    14
CTC2_L_00477006-23
1 67319U 25524OI  26070.40848380  .00000000  00000+0  00000-0 0  9993
2 67319  50.0000  60.0000 0000000   0.0000 354.7826 14.89338871    17
CTC2_L_00477007-01
1 67320U 25429EM  26070.40848380  .00000000  00000+0  00000-0 0  9999
2 67320  50.0000  72.0000 0000000   0.0000  12.5217 14.89338871    15
CTC2_L_00477007-02
1 67321U 22945Q   26070.40848380  .00000000  00000+0  00000-0 0  9990
2 67321  50.0000  72.0000 0000000   0.0000  28.1739 14.89338871    18
CTC2_L_00477007-03
1 67322U 24420ME  26070.40848380  .00000000  00000+0  00000-0 0  9991
2 67322  50.0000  72.0000 0000000   0.0000  43.8261 14.89338871    13
CTC2_L_00477007-04
1 67323U 23642XL  26070.40848380  .00000000  00000+0  00000-0 0  9997
2 67323  50.0000  72.0000 0000000   0.0000  59.4783 14.89338871    16
CTC2_L_00477007-05
1 67324U 25738PD  26070.40848380  .00000000  00000+0  00000-0 0  9996
2 67324  50.0000  72.0000 0000000   0.0000  75.1304 14.89338871    11
CTC2_L_00477007-06
1 67325U 24041UV  26070.40848380  .00000000  00000+0  00000-0 0  9993
2 67325  50.0000  72.0000 0000000   0.0000  90.7826 14.89338871    14
CTC2_L_00477007-07
1 67326U 24605PI  26070.40848380  .00000000  00000+0  00000-0 0  9990
2 67326  50.0000  72.0000 0000000   0.0000 106.4348 14.89338871    19
CTC2_L_00477007-08
1 67327U 24096JU  26070.40848380  .00000000  00000+0  00000-0 0  9995
2 67327  50.0000  72.0000 0000000   0.0000 122.0870 14.89338871    14
CTC2_L_00477007-09
1 67328U 22147BR  26070.40848380  .00000000  00000+0  00000-0 0  9991
2 67328  50.0000  72.0000 0000000   0.0000 137.7391 14.89338871    16
CTC2_L_00477007-10
1 67329U 25895IQ  26070.40848380  .00000000  00000+0  00000-0 0  9995
2 67329  50.0000  72.0000 0000000   0.0000 153.3913 14.89338871    11
CTC2_L_00477007-11
1 67330U 25827AX  26070.40848380  .00000000  00000+0  00000-0 0  9992
2 67330  50.0000  72.0000 0000000   0.0000 169.0435 14.89338871    16
CTC2_L_00477007-12
1 67331U 25415BW  26070.40848380  .00000000  00000+0  00000-0 0  9996
2 67331  50.0000  72.0000 0000000   0.0000 184.6957 14.89338871    19
CTC2_L_00477007-13
1 67332U 22351DS  26070.40848380  .00000000  00000+0  00000-0 0  9993
2 67332  50.0000  72.0000 0000000   0.0000 200.3478 14.89338871    14
CTC2_L_00477007-14
1 67333U 26268DG  26070.40848380  .00000000  00000+0  00000-0 0  9995
2 67333  50.0000  72.0000 0000000   0.0000 216.0000 14.89338871    10
CTC2_L_00477007-15
1 67334U 26579FH  26070.40848380  .00000000  00000+0  00000-0 0  9991
2 67334  50.0000  72.0000 0000000   0.0000 231.6522 14.89338871    13
CTC2_L_00477007-16
1 67335U 22132KZ  26070.40848380  .00000000  00000+0  00000-0 0  9993
2 67335  50.0000  72.0000 0000000   0.0000 247.3043 14.89338871    16
CTC2_L_00477007-17
1 67336U 24147YI  26070.40848380  .00000000  00000+0  00000-0 0  9992
2 67336  50.0000  72.0000 0000000   0.0000 262.9565 14.89338871    19
CTC2_L_00477007-18
1 67337U 22875QI  26070.40848380  .00000000  00000+0  00000-0 0  9999
2 67337  50.0000  72.0000 0000000   0.0000 278.6087 14.89338871    13
CTC2_L_00477007-19
1 67338U 26362TX  26070.40848380  .00000000  00000+0  00000-0 0  9995
2 67338  50.0000  72.0000 0000000   0.0000 294.2609 14.89338871    18
CTC2_L_00477007-20
1 67339U 25551HO  26070.40848380  .00000000  00000+0  00000-0 0  9995
2 67339  50.0000  72.0000 0000000   0.0000 309.9130 14.89338871    12
CTC2_L_00477007-21
1 67340U 22324QO  26070.40848380  .00000000  00000+0  00000-0 0  9992
2 67340  50.0000  72.0000 0000000   0.0000 325.5652 14.89338871    17
CTC2_L_00477007-22
1 67341U 24609CO  26070.40848380  .00000000  00000+0  00000-0 0  9991
2 67341  50.0000  72.0000 0000000   0.0000 341.2174 14.89338871    12
CTC2_L_00477007-23
1 67342U 23841MV  26070.40848380  .00000000  00000+0  00000-0 0  9999
2 67342  50.0000  72.0000 0000000   0.0000 356.8696 14.89338871    14
CTC2_L_00477008-01
1 67343U 23351EW  26070.40848380  .00000000  00000+0  00000-0 0  9996
2 67343  50.0000  84.0000 0000000   0.0000  14.6087 14.89338871    11
CTC2_L_00477008-02
1 67344U 26792VR  26070.40848380  .00000000  00000+0  00000-0 0  9999
2 67344  50.0000  84.0000 0000000   0.0000  30.2609 14.89338871    16
CTC2_L_00477008-03
1 67345U 23887GG  26070.40848380  .00000000  00000+0  00000-0 0  9992
2 67345  50.0000  84.0000 0000000   0.0000  45.9130 14.89338871    19
CTC2_L_00477008-04
1 67346U 24414YE  26070.40848380  .00000000  00000+0  00000-0 0  9990
2 67346  50.0000  84.0000 0000000   0.0000  61.5652 14.89338871    13
CTC2_L_00477008-05
1 67347U 23761LC  26070.40848380  .00000000  00000+0  00000-0 0  9995
2 67347  50.0000  84.0000 0000000   0.0000  77.2174 14.89338871    17
CTC2_L_00477008-06
1 67348U 25984DJ  26070.40848380  .00000000  00000+0  00000-0 0  9995
2 67348  50.0000  84.0000 0000000   0.0000  92.8696 14.89338871    10
CTC2_L_00477008-07
1 67349U 24229PY  26070.40848380  .00000000  00000+0  00000-0 0  9997
2 67349  50.0000  84.0000 0000000   0.0000 108.5217 14.89338871    15
CTC2_L_00477008-08
1 67350U 25565AV  26070.40848380  .00000000  00000+0  00000-0 0  9993
2 67350  50.0000  84.0000 0000000   0.0000 124.1739 14.89338871    10
CTC2_L_00477008-09
1 67351U 23412LU  26070.40848380  .00000000  00000+0  00000-0 0  9993
2 67351  50.0000  84.0000 0000000   0.0000 139.8261 14.89338871    14
CTC2_L_00477008-10
1 67352U 26950DJ  26070.40848380  .00000000  00000+0  00000-0 0  9994
2 67352  50.0000  84.0000 0000000   0.0000 155.4783 14.89338871    18
CTC2_L_00477008-11
1 67353U 23483VB  26070.40848380  .00000000  00000+0  00000-0 0  9993
2 67353  50.0000  84.0000 0000000   0.0000 171.1304 14.89338871    13
CTC2_L_00477008-12
1 67354U 23913TH  26070.40848380  .00000000  00000+0  00000-0 0  9992
2 67354  50.0000  84.0000 0000000   0.0000 186.7826 14.89338871    15
CTC2_L_00477008-13
1 67355U 25657ET  26070.40848380  .00000000  00000+0  00000-0 0  9990
2 67355  50.0000  84.0000 0000000   0.0000 202.4348 14.89338871    11
CTC2_L_00477008-14
1 67356U 22599FY  26070.40848380  .00000000  00000+0  00000-0 0  9993
2 67356  50.0000  84.0000 0000000   0.0000 218.0870 14.89338871    15
CTC2_L_00477008-15
1 67357U 26404OI  26070.40848380  .00000000  00000+0  00000-0 0  9993
2 67357  50.0000  84.0000 0000000   0.0000 233.7391 14.89338871    18
CTC2_L_00477008-16
1 67358U 26977BY  26070.40848380  .00000000  00000+0  00000-0 0  9999
2 67358  50.0000  84.0000 0000000   0.0000 249.3913 14.89338871    12
CTC2_L_00477008-17
1 67359U 26101KC  26070.40848380  .00000000  00000+0  00000-0 0  9999
2 67359  50.0000  84.0000 0000000   0.0000 265.0435 14.89338871    17
CTC2_L_00477008-18
1 67360U 24387KZ  26070.40848380  .00000000  00000+0  00000-0 0  9995
2 67360  50.0000  84.0000 0000000   0.0000 280.6957 14.89338871    11
CTC2_L_00477008-19
1 67361U 23754SI  26070.40848380  .00000000  00000+0  00000-0 0  9993
2 67361  50.0000  84.0000 0000000   0.0000 296.3478 14.89338871    14
CTC2_L_00477008-20
1 67362U 25829YJ  26070.40848380  .00000000  00000+0  00000-0 0  9999
2 67362  50.0000  84.0000 0000000   0.0000 312.0000 14.89338871    12
CTC2_L_00477008-21
1 67363U 26915JH  26070.40848380  .00000000  00000+0  00000-0 0  9997
2 67363  50.0000  84.0000 0000000   0.0000 327.6522 14.89338871    14
CTC2_L_00477008-22
1 67364U 23751TA  26070.40848380  .00000000  00000+0  00000-0 0  9993
2 67364  50.0000  84.0000 0000000   0.0000 343.3043 14.89338871    18
CTC2_L_00477008-23
1 67365U 23345PS  26070.40848380  .00000000  00000+0  00000-0 0  9993
2 67365  50.0000  84.0000 0000000   0.0000 358.9565 14.89338871    10
CTC2_L_00477009-01
1 67366U 23516IH  26070.40848380  .00000000  00000+0  00000-0 0  9994
2 67366  50.0000  96.0000 0000000   0.0000  16.6957 14.89338871    17
CTC2_L_00477009-02
1 67367U 26380WJ  26070.40848380  .00000000  00000+0  00000-0 0  9997
2 67367  50.0000  96.0000 0000000   0.0000  32.3478 14.89338871    11
